LEMUR-2-GREENBERG       
1 42837U 17042N   26068.46200528  .00019778  00000+0  72539-3 0  9997
2 42837  97.3781 249.8007 0009157   4.0119 356.1192 15.27971352473146
STARLINK-34445          
1 64457U 25130V   26068.37209862  .00025144  00000+0  85833-3 0  9991
2 64457  53.1602  90.0647 0001478  79.5810 280.5358 15.30195162 40650
